NORAD_CAT_ID,OBJECT_NAME,OBJECT_TYPE,EPOCH,MEAN_MOTION,ECCENTRICITY,INCLINATION,RA_OF_ASC_NODE,ARG_OF_PERICENTER,MEAN_ANOMALY,BSTAR,MEAN_MOTION_DOT,MEAN_MOTION_DDOT,TLE_LINE0,TLE_LINE1,TLE_LINE2,SEMIMAJOR_AXIS,PERIOD,APOGEE,PERIGEE,DECAYED
54188.0,STARLINK-5238,PAYLOAD,2024-05-14 03:44:50,15.08819341,0.0001446,53.2168,97.4867,70.836,289.2789,0.00065843,0.00010201,0.0,0 STARLINK-5238,1 54188U 22141AH  24135.15613626  .00010201  00000-0  65843-3 0  9994,2 54188  53.2168  97.4867 0001446  70.8360 289.2789 15.08819341 85900,6917.944,95.439,540.809,538.808,0.0
54188.0,STARLINK-5238,PAYLOAD,2024-05-15 03:35:41,15.08761306,0.0001458,53.2156,93.0248,103.1991,256.9164,0.0020494,0.00032408,0.0,0 STARLINK-5238,1 54188U 22141AH  24136.14978264  .00032408  00000-0  20494-2 0  9991,2 54188  53.2156  93.0248 0001458 103.1991 256.9164 15.08761306 86057,6918.121,95.443,540.995,538.977,0.0
54188.0,STARLINK-5238,PAYLOAD,2024-05-15 06:46:22,15.088745,0.0001422,53.2161,92.4275,94.4281,265.6874,0.00031044,4.661e-05,0.0,0 STARLINK-5238,1 54188U 22141AH  24136.28220227  .00004661  00000-0  31044-3 0  9999,2 54188  53.2161  92.4275 0001422  94.4281 265.6874 15.08874500 86079,6917.775,95.435,540.624,538.656,0.0
54188.0,STARLINK-5238,PAYLOAD,2024-05-16 03:26:23,15.08854657,0.0001465,53.2175,88.5638,101.207,258.9087,-3.7544e-05,-8.86e-06,0.0,0 STARLINK-5238,1 54188U 22141AH  24137.14332395 -.00000886  00000-0 -37544-4 0  9994,2 54188  53.2175  88.5638 0001465 101.2070 258.9087 15.08854657 86200,6917.836,95.437,540.714,538.687,0.0
54188.0,STARLINK-5238,PAYLOAD,2024-05-16 06:37:09,15.0885602,0.0001445,53.2175,87.9672,108.1875,251.9274,-1.3351e-05,-5.01e-06,0.0,0 STARLINK-5238,1 54188U 22141AH  24137.27580154 -.00000501  00000-0 -13351-4 0  9990,2 54188  53.2175  87.9672 0001445 108.1875 251.9274 15.08856020 85990,6917.831,95.437,540.696,538.697,0.0
54188.0,STARLINK-5238,PAYLOAD,2024-05-17 12:49:28,15.08846872,0.0001403,53.2171,82.3193,95.51,264.6052,-9.313e-05,-1.77e-05,0.0,0 STARLINK-5238,1 54188U 22141AH  24138.53435913 -.00001770  00000-0 -93130-4 0  9994,2 54188  53.2171  82.3193 0001403  95.5100 264.6052 15.08846872 86414,6917.859,95.437,540.695,538.754,0.0
54188.0,STARLINK-5238,PAYLOAD,2024-05-18 03:07:57,15.08845648,0.0001285,53.216,79.6411,84.3674,275.7465,0.00015901,2.244e-05,0.0,0 STARLINK-5238,1 54188U 22141AH  24139.13052507  .00002244  00000-0  15901-3 0  9999,2 54188  53.2160  79.6411 0001285  84.3674 275.7465 15.08845648 86505,6917.863,95.437,540.617,538.839,0.0
54188.0,STARLINK-5238,PAYLOAD,2024-05-18 12:40:16,15.08841723,0.000135,53.2164,77.8596,91.4443,268.6704,5.3102e-05,5.57e-06,0.0,0 STARLINK-5238,1 54188U 22141AH  24139.52796653  .00000557  00000-0  53102-4 0  9990,2 54188  53.2164  77.8596 0001350  91.4443 268.6704 15.08841723 86337,6917.875,95.437,540.674,538.806,0.0
54188.0,STARLINK-5238,PAYLOAD,2024-05-19 02:58:43,15.08862753,0.0001325,53.2171,75.1828,96.1444,263.9699,0.00038749,5.888e-05,0.0,0 STARLINK-5238,1 54188U 22141AH  24140.12411505  .00005888  00000-0  38749-3 0  9999,2 54188  53.2171  75.1828 0001325  96.1444 263.9699 15.08862753 86651,6917.811,95.436,540.592,538.759,0.0
54188.0,STARLINK-5238,PAYLOAD,2024-05-20 02:49:32,15.08831097,0.0001217,53.2164,70.7221,83.3179,276.7952,-0.00011357,-2.094e-05,0.0,0 STARLINK-5238,1 54188U 22141AH  24141.11773756 -.00002094  00000-0 -11357-3 0  9992,2 54188  53.2164  70.7221 0001217  83.3179 276.7952 15.08831097 86802,6917.908,95.438,540.615,538.931,0.0
54188.0,STARLINK-5238,PAYLOAD,2024-05-21 04:15:42,15.0885158,0.0001344,53.2169,65.9626,87.0288,273.0858,6.8815e-05,8.08e-06,0.0,0 STARLINK-5238,1 54188U 22141AH  24142.17757078  .00000808  00000-0  68815-4 0  9999,2 54188  53.2169  65.9626 0001344  87.0288 273.0858 15.08851580 86966,6917.845,95.437,540.64,538.78,0.0
54188.0,STARLINK-5238,PAYLOAD,2024-05-22 00:55:44,15.08836646,0.0001551,53.217,62.1028,109.8619,250.254,0.00018002,2.578e-05,0.0,0 STARLINK-5238,1 54188U 22141AH  24143.03870470  .00002578  00000-0  18002-3 0  9995,2 54188  53.2170  62.1028 0001551 109.8619 250.2540 15.08836646 87090,6917.891,95.438,540.829,538.683,0.0
54188.0,STARLINK-5238,PAYLOAD,2024-05-23 03:57:16,15.08854393,0.0001574,53.2174,57.0419,84.7126,275.4046,9.3607e-05,1.203e-05,0.0,0 STARLINK-5238,1 54188U 22141AH  24144.16477483  .00001203  00000-0  93607-4 0  9996,2 54188  53.2174  57.0419 0001574  84.7126 275.4046 15.08854393 87268,6917.836,95.437,540.79,538.613,0.0
54188.0,STARLINK-5238,PAYLOAD,2024-05-23 21:26:31,15.08843595,0.000177,53.2171,53.7653,120.0464,240.0704,4.882e-05,4.89e-06,0.0,0 STARLINK-5238,1 54188U 22141AH  24144.89341825  .00000489  00000-0  48820-4 0  9998,2 54188  53.2171  53.7653 0001770 120.0464 240.0704 15.08843595 87143,6917.869,95.437,540.959,538.51,0.0
54188.0,STARLINK-5238,PAYLOAD,2024-05-24 03:48:03,15.08846846,0.000165,53.2191,52.579,105.3781,254.7394,8.6302e-05,1.086e-05,0.0,0 STARLINK-5238,1 54188U 22141AH  24145.15837681  .00001086  00000-0  86302-4 0  9999,2 54188  53.2191  52.5790 0001650 105.3781 254.7394 15.08846846 87418,6917.859,95.437,540.866,538.583,0.0
54188.0,STARLINK-5238,PAYLOAD,2024-05-24 21:17:18,15.08840482,0.0001551,53.2175,49.3057,117.9679,242.147,-9.6154e-05,-1.818e-05,0.0,0 STARLINK-5238,1 54188U 22141AH  24145.88702530 -.00001818  00000-0 -96154-4 0  9994,2 54188  53.2175  49.3057 0001551 117.9679 242.1470 15.08840482 87523,6917.879,95.438,540.817,538.671,0.0
54188.0,STARLINK-5238,PAYLOAD,2024-05-24 22:52:42,15.08838766,0.0001471,53.2183,49.0145,106.6099,253.5054,-8.305e-05,-1.609e-05,0.0,0 STARLINK-5238,1 54188U 22141AH  24145.95326638 -.00001609  00000-0 -83050-4 0  9992,2 54188  53.2183  49.0145 0001471 106.6099 253.5054 15.08838766 87301,6917.884,95.438,540.767,538.732,0.0
54188.0,STARLINK-5238,PAYLOAD,2024-05-25 10:00:24,15.08837488,0.0001122,53.218,46.9346,94.8343,265.2777,-8.4209e-05,-1.628e-05,0.0,0 STARLINK-5238,1 54188U 22141AH  24146.41694683 -.00001628  00000-0 -84209-4 0  9990,2 54188  53.2180  46.9346 0001122  94.8343 265.2777 15.08837488 87379,6917.888,95.438,540.529,538.977,0.0
54188.0,STARLINK-5238,PAYLOAD,2024-05-26 03:29:39,15.08833874,0.0001331,53.218,43.6643,93.5478,266.5666,-8.1124e-05,-1.579e-05,0.0,0 STARLINK-5238,1 54188U 22141AH  24147.14559517 -.00001579  00000-0 -81124-4 0  9995,2 54188  53.2180  43.6643 0001331  93.5478 266.5666 15.08833874 87714,6917.899,95.438,540.685,538.843,0.0
54188.0,STARLINK-5238,PAYLOAD,2024-05-26 22:34:16,15.08836658,0.0001521,53.219,40.1001,64.0427,296.0722,0.00012101,1.638e-05,0.0,0 STARLINK-5238,1 54188U 22141AH  24147.94047376  .00001638  00000-0  12101-3 0  9990,2 54188  53.2190  40.1001 0001521  64.0427 296.0722 15.08836658 87605,6917.891,95.438,540.808,538.703,0.0
54188.0,STARLINK-5238,PAYLOAD,2024-05-27 03:20:25,15.0885149,0.0001229,53.218,39.2046,89.7884,270.3249,0.00023319,3.426e-05,0.0,0 STARLINK-5238,1 54188U 22141AH  24148.13917955  .00003426  00000-0  23319-3 0  9991,2 54188  53.2180  39.2046 0001229  89.7884 270.3249 15.08851490 87866,6917.845,95.437,540.56,538.86,0.0
54188.0,STARLINK-5238,PAYLOAD,2024-05-27 09:41:58,15.08841674,8.85e-05,53.2192,38.0178,105.083,255.0261,2.4167e-05,9.7e-07,0.0,0 STARLINK-5238,1 54188U 22141AH  24148.40414809  .00000097  00000-0  24167-4 0  9995,2 54188  53.2192  38.0178 0000885 105.0830 255.0261 15.08841674 87904,6917.875,95.437,540.353,539.128,0.0
54188.0,STARLINK-5238,PAYLOAD,2024-05-27 22:25:03,15.08838173,0.0001472,53.2187,35.6336,108.5088,251.6065,0.00010982,1.46e-05,0.0,0 STARLINK-5238,1 54188U 22141AH  24148.93407078  .00001460  00000-0  10982-3 0  9997,2 54188  53.2187  35.6336 0001472 108.5088 251.6065 15.08838173 87750,6917.886,95.438,540.769,538.733,0.0
54188.0,STARLINK-5238,PAYLOAD,2024-05-28 09:32:45,15.0884694,0.0001201,53.2182,33.5519,87.2747,272.8383,0.00012902,1.766e-05,0.0,0 STARLINK-5238,1 54188U 22141AH  24149.39774516  .00001766  00000-0  12902-3 0  9995,2 54188  53.2182  33.5519 0001201  87.2747 272.8383 15.08846940 87827,6917.859,95.437,540.555,538.893,0.0
54188.0,STARLINK-5238,PAYLOAD,2024-05-28 20:40:27,15.08846637,0.0001283,53.2182,31.4703,85.4136,274.7003,8.678e-06,-1.5e-06,0.0,0 STARLINK-5238,1 54188U 22141AH  24149.86142824 -.00000150  00000-0  86780-5 0  9992,2 54188  53.2182  31.4703 0001283  85.4136 274.7003 15.08846637 88128,6917.86,95.437,540.613,538.838,0.0
54188.0,STARLINK-5238,PAYLOAD,2024-05-28 22:15:50,15.08848166,0.0001267,53.218,31.1744,88.6701,271.4436,9.1113e-06,-1.43e-06,0.0,0 STARLINK-5238,1 54188U 22141AH  24149.92766696 -.00000143  00000-0  91113-5 0  9996,2 54188  53.2180  31.1744 0001267  88.6701 271.4436 15.08848166 87901,6917.855,95.437,540.597,538.844,0.0
54188.0,STARLINK-5238,PAYLOAD,2024-05-29 01:26:36,15.08852921,0.0001278,53.2187,30.5785,92.7769,267.3369,5.2322e-05,5.45e-06,0.0,0 STARLINK-5238,1 54188U 22141AH  24150.06014111  .00000545  00000-0  52322-4 0  9994,2 54188  53.2187  30.5785 0001278  92.7769 267.3369 15.08852921 88159,6917.841,95.437,540.59,538.822,0.0
54188.0,STARLINK-5238,PAYLOAD,2024-05-29 20:31:13,15.08848676,0.0001399,53.2179,27.0102,105.2372,254.8775,3.0731e-05,2.01e-06,0.0,0 STARLINK-5238,1 54188U 22141AH  24150.85502297  .00000201  00000-0  30731-4 0  9997,2 54188  53.2179  27.0102 0001399 105.2372 254.8775 15.08848676 88275,6917.854,95.437,540.687,538.751,0.0
54188.0,STARLINK-5238,PAYLOAD,2024-05-29 22:06:37,15.08847119,0.0001456,53.2184,26.7156,81.4587,278.657,6.5406e-05,7.53e-06,0.0,0 STARLINK-5238,1 54188U 22141AH  24150.92126473  .00000753  00000-0  65406-4 0  9992,2 54188  53.2184  26.7156 0001456  81.4587 278.6570 15.08847119 88057,6917.859,95.437,540.731,538.716,0.0
54188.0,STARLINK-5238,PAYLOAD,2024-05-30 01:17:23,15.08847013,0.0001383,53.2181,26.1189,98.2697,261.8452,9.3248e-05,1.197e-05,0.0,0 STARLINK-5238,1 54188U 22141AH  24151.05374229  .00001197  00000-0  93248-4 0  9999,2 54188  53.2181  26.1189 0001383  98.2697 261.8452 15.08847013 88079,6917.859,95.437,540.681,538.767,0.0
